{
    "links": {
        "self": "http://www.neowsapp.com/rest/v1/neo/3421512?api_key=iIulBulltgU6a56xZRHN4H3l9WmuAYTsLGpBGhQ2"
    },
    "id": "3421512",
    "neo_reference_id": "3421512",
    "name": "(2008 OO1)",
    "designation": "2008 OO1",
    "nasa_jpl_url": "http://ssd.jpl.nasa.gov/sbdb.cgi?sstr=3421512",
    "absolute_magnitude_h": 24.6,
    "estimated_diameter": {
        "kilometers": {
            "estimated_diameter_min": 0.0319561887,
            "estimated_diameter_max": 0.0714562102
        },
        "meters": {
            "estimated_diameter_min": 31.9561886721,
            "estimated_diameter_max": 71.4562101727
        },
        "miles": {
            "estimated_diameter_min": 0.0198566489,
            "estimated_diameter_max": 0.0444008168
        },
        "feet": {
            "estimated_diameter_min": 104.8431420431,
            "estimated_diameter_max": 234.436392583
        }
    },
    "is_potentially_hazardous_asteroid": false,
    "close_approach_data": [
        {
            "close_approach_date": "2008-07-21",
            "close_approach_date_full": "2008-Jul-21 00:39",
            "epoch_date_close_approach": 1216600740000,
            "relative_velocity": {
                "kilometers_per_second": "12.7396696694",
                "kilometers_per_hour": "45862.8108098137",
                "miles_per_hour": "28497.3670834645"
            },
            "miss_distance": {
                "astronomical": "0.0180873395",
                "lunar": "7.0359750655",
                "kilometers": "2705827.463166865",
                "miles": "1681323.221618137"
            },
            "orbiting_body": "Earth"
        }
    ],
    "orbital_data": {
        "orbit_id": "12",
        "orbit_determination_date": "2017-04-06 09:03:12",
        "first_observation_date": "2008-07-26",
        "last_observation_date": "2008-08-27",
        "data_arc_in_days": 32,
        "observations_used": 42,
        "orbit_uncertainty": "7",
        "minimum_orbit_intersection": ".021353",
        "jupiter_tisserand_invariant": "3.204",
        "epoch_osculation": "2459000.5",
        "eccentricity": ".6142648477360327",
        "semi_major_axis": "2.432013403895486",
        "inclination": "9.337700217006212",
        "ascending_node_longitude": "304.1918140329568",
        "orbital_period": "1385.311288461114",
        "perihelion_distance": ".9381130606596345",
        "perihelion_argument": "314.3048279110561",
        "aphelion_distance": "3.925913747131338",
        "perihelion_time": "2458788.945874821778",
        "mean_anomaly": "54.97644153954901",
        "mean_motion": ".2598693903663409",
        "equinox": "J2000",
        "orbit_class": {
            "orbit_class_type": "APO",
            "orbit_class_description": "Near-Earth asteroid orbits which cross the Earth’s orbit similar to that of 1862 Apollo",
            "orbit_class_range": "a (semi-major axis) > 1.0 AU; q (perihelion) < 1.017 AU"
        }
    },
    "is_sentry_object": false
}